[{"OBJECT_NAME":"TISAT 1","OBJECT_ID":"2010-035E","EPOCH":"2026-03-09T18:10:07.877568","MEAN_MOTION":15.27628633,"ECCENTRICITY":0.00013432,"INCLINATION":98.0645,"RA_OF_ASC_NODE":6.8512,"ARG_OF_PERICENTER":159.303,"MEAN_ANOMALY":200.8262,"EPHEMERIS_TYPE":0,"CLASSIFICATION_TYPE":"U","NORAD_CAT_ID":36799,"ELEMENT_SET_NO":999,"REV_AT_EPOCH":85250,"BSTAR":0.00091004793,"MEAN_MOTION_DOT":0.00024554,"MEAN_MOTION_DDOT":0},{"OBJECT_NAME":"STARLINK-36501","OBJECT_ID":"2026-002Y","EPOCH":"2026-03-09T02:34:42.746016","MEAN_MOTION":15.27611343,"ECCENTRICITY":0.00017045,"INCLINATION":43.0019,"RA_OF_ASC_NODE":328.2274,"ARG_OF_PERICENTER":276.0429,"MEAN_ANOMALY":84.0228,"EPHEMERIS_TYPE":0,"CLASSIFICATION_TYPE":"U","NORAD_CAT_ID":67327,"ELEMENT_SET_NO":999,"REV_AT_EPOCH":1099,"BSTAR":0.0010137739,"MEAN_MOTION_DOT":0.00027767,"MEAN_MOTION_DDOT":0}]
